IRIDIUM 136             
1 42962U 17061H   23292.79668807  .00000044  00000+0  87582-5 0  9999
2 42962  86.3946  71.1984 0002073  85.8406 274.3027 14.34220146315601
